{
  "norad_id": 66390,
  "name": "STARLINK-35665",
  "history": [
    {
      "epoch": "2026-03-28T11:48:07.505856Z",
      "apogee_km": 476.0433330568867,
      "perigee_km": 474.2988920099224,
      "latitude_deg": -1.4403971244128815e-06,
      "longitude_deg": 126.62809435324975,
      "height_km": 475.8325036399333,
      "semi_major_axis_km": 6853.308112533405,
      "eccentricity": 0.00012727,
      "inclination_deg": 53.1585,
      "raan_deg": 129.5708,
      "arg_perigee_deg": 74.261,
      "mean_anomaly_deg": 285.8531,
      "mean_motion_rev_day": 15.30214722
    },
    {
      "epoch": "2026-03-28T19:38:23.565984Z",
      "apogee_km": 476.4674030542419,
      "perigee_km": 473.8741113989081,
      "latitude_deg": -6.203850756681234e-05,
      "longitude_deg": 7.22024509416649,
      "height_km": 475.74899140888857,
      "semi_major_axis_km": 6853.307757226575,
      "eccentricity": 0.0001892,
      "inclination_deg": 53.1587,
      "raan_deg": 128.0518,
      "arg_perigee_deg": 75.7612,
      "mean_anomaly_deg": 284.3598,
      "mean_motion_rev_day": 15.30214841
    },
    {
      "epoch": "2026-03-30T01:25:24.091968Z",
      "apogee_km": 476.39064055662675,
      "perigee_km": 473.978271404123,
      "latitude_deg": 3.4185718517947365e-06,
      "longitude_deg": -86.51636126674946,
      "height_km": 476.0051035329259,
      "semi_major_axis_km": 6853.321455980375,
      "eccentricity": 0.000176,
      "inclination_deg": 53.1584,
      "raan_deg": 122.2905,
      "arg_perigee_deg": 86.36,
      "mean_anomaly_deg": 273.7602,
      "mean_motion_rev_day": 15.30210253
    },
    {
      "epoch": "2026-03-30T06:07:33.663072Z",
      "apogee_km": 475.8057517437928,
      "perigee_km": 474.58599555894034,
      "latitude_deg": 2.866930369687616e-05,
      "longitude_deg": -158.16195315374785,
      "height_km": 476.10953989432755,
      "semi_major_axis_km": 6853.332873651366,
      "eccentricity": 8.899e-05,
      "inclination_deg": 53.158,
      "raan_deg": 121.3779,
      "arg_perigee_deg": 91.4372,
      "mean_anomaly_deg": 268.6731,
      "mean_motion_rev_day": 15.30206429
    },
    {
      "epoch": "2026-03-30T09:15:40.113216Z",
      "apogee_km": 476.3546091963326,
      "perigee_km": 474.0459939929169,
      "latitude_deg": 2.7207882771823298e-05,
      "longitude_deg": 154.0764152981805,
      "height_km": 476.07639830360876,
      "semi_major_axis_km": 6853.3373015946245,
      "eccentricity": 0.00016843,
      "inclination_deg": 53.1578,
      "raan_deg": 120.7719,
      "arg_perigee_deg": 88.9496,
      "mean_anomaly_deg": 271.1698,
      "mean_motion_rev_day": 15.30204946
    },
    {
      "epoch": "2026-03-31T18:10:47.298432Z",
      "apogee_km": 476.04260050765606,
      "perigee_km": 474.38271922003696,
      "latitude_deg": -2.6418478966272704e-05,
      "longitude_deg": 12.573617280593071,
      "height_km": 476.07727291058535,
      "semi_major_axis_km": 6853.349659863846,
      "eccentricity": 0.0001211,
      "inclination_deg": 53.1567,
      "raan_deg": 114.401,
      "arg_perigee_deg": 87.7078,
      "mean_anomaly_deg": 272.4061,
      "mean_motion_rev_day": 15.30200807
    },
    {
      "epoch": "2026-04-01T11:25:22.332288Z",
      "apogee_km": 475.9858795460668,
      "perigee_km": 474.37946141530574,
      "latitude_deg": 5.369042293824282e-05,
      "longitude_deg": 109.88335598383415,
      "height_km": 475.9560668938934,
      "semi_major_axis_km": 6853.319670480686,
      "eccentricity": 0.0001172,
      "inclination_deg": 53.1572,
      "raan_deg": 111.0648,
      "arg_perigee_deg": 81.0809,
      "mean_anomaly_deg": 279.0325,
      "mean_motion_rev_day": 15.30210851
    }
  ]
}